[{"OBJECT_NAME":"IRIDIUM 151","OBJECT_ID":"2017-083E","EPOCH":"2026-03-03T09:19:55.145280","MEAN_MOTION":14.34218243,"ECCENTRICITY":0.0002152,"INCLINATION":86.4014,"RA_OF_ASC_NODE":6.2667,"ARG_OF_PERICENTER":86.1911,"MEAN_ANOMALY":273.9531,"EPHEMERIS_TYPE":0,"CLASSIFICATION_TYPE":"U","NORAD_CAT_ID":43074,"ELEMENT_SET_NO":999,"REV_AT_EPOCH":42897,"BSTAR":2.5631e-5,"MEAN_MOTION_DOT":9.2e-7,"MEAN_MOTION_DDOT":0},{"OBJECT_NAME":"IRIDIUM 134","OBJECT_ID":"2017-083F","EPOCH":"2026-03-03T08:34:15.146400","MEAN_MOTION":14.34217852,"ECCENTRICITY":0.0002023,"INCLINATION":86.4022,"RA_OF_ASC_NODE":6.2866,"ARG_OF_PERICENTER":85.2146,"MEAN_ANOMALY":274.9281,"EPHEMERIS_TYPE":0,"CLASSIFICATION_TYPE":"U","NORAD_CAT_ID":43075,"ELEMENT_SET_NO":999,"REV_AT_EPOCH":42893,"BSTAR":8.656e-6,"MEAN_MOTION_DOT":4.4e-7,"MEAN_MOTION_DDOT":0},{"OBJECT_NAME":"IRIDIUM 137","OBJECT_ID":"2017-083G","EPOCH":"2026-03-03T08:52:31.153728","MEAN_MOTION":14.34218049,"ECCENTRICITY":0.0002292,"INCLINATION":86.4019,"RA_OF_ASC_NODE":6.3714,"ARG_OF_PERICENTER":97.1164,"MEAN_ANOMALY":263.0293,"EPHEMERIS_TYPE":0,"CLASSIFICATION_TYPE":"U","NORAD_CAT_ID":43076,"ELEMENT_SET_NO":999,"REV_AT_EPOCH":42900,"BSTAR":1.1526e-5,"MEAN_MOTION_DOT":5.2e-7,"MEAN_MOTION_DDOT":0},{"OBJECT_NAME":"IRIDIUM 141","OBJECT_ID":"2017-083H","EPOCH":"2026-03-03T08:43:24.220992","MEAN_MOTION":14.34220272,"ECCENTRICITY":0.0002238,"INCLINATION":86.4015,"RA_OF_ASC_NODE":6.2112,"ARG_OF_PERICENTER":82.9749,"MEAN_ANOMALY":277.1702,"EPHEMERIS_TYPE":0,"CLASSIFICATION_TYPE":"U","NORAD_CAT_ID":43077,"ELEMENT_SET_NO":999,"REV_AT_EPOCH":42900,"BSTAR":0.00012472,"MEAN_MOTION_DOT":3.69e-6,"MEAN_MOTION_DDOT":0},{"OBJECT_NAME":"IRIDIUM 153","OBJECT_ID":"2017-083J","EPOCH":"2026-03-03T05:54:03.410784","MEAN_MOTION":14.3421809,"ECCENTRICITY":0.0002189,"INCLINATION":86.4012,"RA_OF_ASC_NODE":334.774,"ARG_OF_PERICENTER":78.5593,"MEAN_ANOMALY":281.5849,"EPHEMERIS_TYPE":0,"CLASSIFICATION_TYPE":"U","NORAD_CAT_ID":43078,"ELEMENT_SET_NO":999,"REV_AT_EPOCH":43009,"BSTAR":2.3372e-5,"MEAN_MOTION_DOT":8.5e-7,"MEAN_MOTION_DDOT":0},{"OBJECT_NAME":"IRIDIUM 131","OBJECT_ID":"2017-083K","EPOCH":"2026-03-03T08:25:07.167360","MEAN_MOTION":14.34216874,"ECCENTRICITY":0.0002322,"INCLINATION":86.4021,"RA_OF_ASC_NODE":6.3953,"ARG_OF_PERICENTER":85.372,"MEAN_ANOMALY":274.7741,"EPHEMERIS_TYPE":0,"CLASSIFICATION_TYPE":"U","NORAD_CAT_ID":43079,"ELEMENT_SET_NO":999,"REV_AT_EPOCH":42893,"BSTAR":0.0001258,"MEAN_MOTION_DOT":3.72e-6,"MEAN_MOTION_DDOT":0},{"OBJECT_NAME":"IRIDIUM 144","OBJECT_ID":"2018-030A","EPOCH":"2026-03-03T06:03:11.374272","MEAN_MOTION":14.34218196,"ECCENTRICITY":0.0001912,"INCLINATION":86.4011,"RA_OF_ASC_NODE":334.7029,"ARG_OF_PERICENTER":86.7323,"MEAN_ANOMALY":273.4091,"EPHEMERIS_TYPE":0,"CLASSIFICATION_TYPE":"U","NORAD_CAT_ID":43249,"ELEMENT_SET_NO":999,"REV_AT_EPOCH":41495,"BSTAR":5.3474e-5,"MEAN_MOTION_DOT":1.7e-6,"MEAN_MOTION_DDOT":0},{"OBJECT_NAME":"IRIDIUM 149","OBJECT_ID":"2018-030B","EPOCH":"2026-03-03T06:12:19.387872","MEAN_MOTION":14.34218474,"ECCENTRICITY":0.0002153,"INCLINATION":86.4015,"RA_OF_ASC_NODE":334.6686,"ARG_OF_PERICENTER":83.2423,"MEAN_ANOMALY":276.9018,"EPHEMERIS_TYPE":0,"CLASSIFICATION_TYPE":"U","NORAD_CAT_ID":43250,"ELEMENT_SET_NO":999,"REV_AT_EPOCH":41497,"BSTAR":6.0406e-5,"MEAN_MOTION_DOT":1.89e-6,"MEAN_MOTION_DDOT":0},{"OBJECT_NAME":"IRIDIUM 157","OBJECT_ID":"2018-030C","EPOCH":"2026-03-03T06:39:43.382016","MEAN_MOTION":14.34218243,"ECCENTRICITY":0.000215,"INCLINATION":86.4017,"RA_OF_ASC_NODE":334.7117,"ARG_OF_PERICENTER":84.974,"MEAN_ANOMALY":275.1701,"EPHEMERIS_TYPE":0,"CLASSIFICATION_TYPE":"U","NORAD_CAT_ID":43251,"ELEMENT_SET_NO":999,"REV_AT_EPOCH":41495,"BSTAR":3.5137e-5,"MEAN_MOTION_DOT":1.18e-6,"MEAN_MOTION_DDOT":0},{"OBJECT_NAME":"IRIDIUM 140","OBJECT_ID":"2018-030D","EPOCH":"2026-03-03T05:26:39.414048","MEAN_MOTION":14.34217682,"ECCENTRICITY":0.0002043,"INCLINATION":86.4015,"RA_OF_ASC_NODE":334.7456,"ARG_OF_PERICENTER":83.4574,"MEAN_ANOMALY":276.6854,"EPHEMERIS_TYPE":0,"CLASSIFICATION_TYPE":"U","NORAD_CAT_ID":43252,"ELEMENT_SET_NO":999,"REV_AT_EPOCH":41500,"BSTAR":2.1013e-6,"MEAN_MOTION_DOT":2.6e-7,"MEAN_MOTION_DDOT":0},{"OBJECT_NAME":"IRIDIUM 145","OBJECT_ID":"2018-030E","EPOCH":"2026-03-03T06:48:51.291936","MEAN_MOTION":14.34218547,"ECCENTRICITY":0.0001857,"INCLINATION":86.4015,"RA_OF_ASC_NODE":334.6942,"ARG_OF_PERICENTER":92.9247,"MEAN_ANOMALY":267.2161,"EPHEMERIS_TYPE":0,"CLASSIFICATION_TYPE":"U","NORAD_CAT_ID":43253,"ELEMENT_SET_NO":999,"REV_AT_EPOCH":41494,"BSTAR":7.5153e-5,"MEAN_MOTION_DOT":2.3e-6,"MEAN_MOTION_DDOT":0},{"OBJECT_NAME":"IRIDIUM 146","OBJECT_ID":"2018-030F","EPOCH":"2026-03-03T06:21:27.340128","MEAN_MOTION":14.34219185,"ECCENTRICITY":0.0002079,"INCLINATION":86.4015,"RA_OF_ASC_NODE":334.7147,"ARG_OF_PERICENTER":88.9497,"MEAN_ANOMALY":271.1937,"EPHEMERIS_TYPE":0,"CLASSIFICATION_TYPE":"U","NORAD_CAT_ID":43254,"ELEMENT_SET_NO":999,"REV_AT_EPOCH":41495,"BSTAR":0.00012194,"MEAN_MOTION_DOT":3.61e-6,"MEAN_MOTION_DDOT":0},{"OBJECT_NAME":"IRIDIUM 148","OBJECT_ID":"2018-030G","EPOCH":"2026-03-03T05:35:47.343840","MEAN_MOTION":14.34219113,"ECCENTRICITY":0.0002133,"INCLINATION":86.4016,"RA_OF_ASC_NODE":334.7693,"ARG_OF_PERICENTER":86.227,"MEAN_ANOMALY":273.917,"EPHEMERIS_TYPE":0,"CLASSIFICATION_TYPE":"U","NORAD_CAT_ID":43255,"ELEMENT_SET_NO":999,"REV_AT_EPOCH":41498,"BSTAR":9.2141e-5,"MEAN_MOTION_DOT":2.78e-6,"MEAN_MOTION_DDOT":0},{"OBJECT_NAME":"IRIDIUM 142","OBJECT_ID":"2018-030H","EPOCH":"2026-03-03T06:30:35.332992","MEAN_MOTION":14.34218199,"ECCENTRICITY":0.0001878,"INCLINATION":86.4014,"RA_OF_ASC_NODE":334.6465,"ARG_OF_PERICENTER":92.051,"MEAN_ANOMALY":268.0901,"EPHEMERIS_TYPE":0,"CLASSIFICATION_TYPE":"U","NORAD_CAT_ID":43256,"ELEMENT_SET_NO":999,"REV_AT_EPOCH":41495,"BSTAR":2.5361e-5,"MEAN_MOTION_DOT":9.1e-7,"MEAN_MOTION_DDOT":0},{"OBJECT_NAME":"IRIDIUM 150","OBJECT_ID":"2018-030J","EPOCH":"2026-03-03T07:25:23.276352","MEAN_MOTION":14.34218038,"ECCENTRICITY":0.000205,"INCLINATION":86.4018,"RA_OF_ASC_NODE":334.7433,"ARG_OF_PERICENTER":85.5401,"MEAN_ANOMALY":274.6029,"EPHEMERIS_TYPE":0,"CLASSIFICATION_TYPE":"U","NORAD_CAT_ID":43257,"ELEMENT_SET_NO":999,"REV_AT_EPOCH":41498,"BSTAR":0.00010459,"MEAN_MOTION_DOT":3.13e-6,"MEAN_MOTION_DDOT":0},{"OBJECT_NAME":"IRIDIUM 143","OBJECT_ID":"2018-030K","EPOCH":"2026-03-03T06:57:59.353920","MEAN_MOTION":14.34218453,"ECCENTRICITY":0.0001987,"INCLINATION":86.4019,"RA_OF_ASC_NODE":334.8396,"ARG_OF_PERICENTER":88.7134,"MEAN_ANOMALY":271.429,"EPHEMERIS_TYPE":0,"CLASSIFICATION_TYPE":"U","NORAD_CAT_ID":43258,"ELEMENT_SET_NO":999,"REV_AT_EPOCH":41491,"BSTAR":3.9886e-5,"MEAN_MOTION_DOT":1.31e-6,"MEAN_MOTION_DDOT":0},{"OBJECT_NAME":"IRIDIUM 161","OBJECT_ID":"2018-047C","EPOCH":"2026-03-03T05:33:19.388160","MEAN_MOTION":14.43282703,"ECCENTRICITY":0.000254,"INCLINATION":86.4512,"RA_OF_ASC_NODE":132.7811,"ARG_OF_PERICENTER":92.8755,"MEAN_ANOMALY":267.2737,"EPHEMERIS_TYPE":0,"CLASSIFICATION_TYPE":"U","NORAD_CAT_ID":43478,"ELEMENT_SET_NO":999,"REV_AT_EPOCH":40985,"BSTAR":0.00011272,"MEAN_MOTION_DOT":3.99e-6,"MEAN_MOTION_DDOT":0}]
