IRIDIUM 151             
1 43074U 17083E   26062.38883270  .00000092  00000+0  25631-4 0  9993
2 43074  86.4014   6.2667 0002152  86.1911 273.9531 14.34218243428978
IRIDIUM 134             
1 43075U 17083F   26062.35711975  .00000044  00000+0  86560-5 0  9999
2 43075  86.4022   6.2866 0002023  85.2146 274.9281 14.34217852428930
IRIDIUM 137             
1 43076U 17083G   26062.36980502  .00000052  00000+0  11526-4 0  9993
2 43076  86.4019   6.3714 0002292  97.1164 263.0293 14.34218049429000
IRIDIUM 141             
1 43077U 17083H   26062.36347478  .00000369  00000+0  12472-3 0  9994
2 43077  86.4015   6.2112 0002238  82.9749 277.1702 14.34220272429001
IRIDIUM 153             
1 43078U 17083J   26062.24587281  .00000085  00000+0  23372-4 0  9997
2 43078  86.4012 334.7740 0002189  78.5593 281.5849 14.34218090430095
IRIDIUM 131             
1 43079U 17083K   26062.35077740  .00000372  00000+0  12580-3 0  9991
2 43079  86.4021   6.3953 0002322  85.3720 274.7741 14.34216874428934
IRIDIUM 144             
1 43249U 18030A   26062.25221498  .00000170  00000+0  53474-4 0  9997
2 43249  86.4011 334.7029 0001912  86.7323 273.4091 14.34218196414952
IRIDIUM 149             
1 43250U 18030B   26062.25855773  .00000189  00000+0  60406-4 0  9991
2 43250  86.4015 334.6686 0002153  83.2423 276.9018 14.34218474414975
IRIDIUM 157             
1 43251U 18030C   26062.27758544  .00000118  00000+0  35137-4 0  9997
2 43251  86.4017 334.7117 0002150  84.9740 275.1701 14.34218243414957
IRIDIUM 140             
1 43252U 18030D   26062.22684507  .00000026  00000+0  21013-5 0  9997
2 43252  86.4015 334.7456 0002043  83.4574 276.6854 14.34217682415000
IRIDIUM 145             
1 43253U 18030E   26062.28392699  .00000230  00000+0  75153-4 0  9992
2 43253  86.4015 334.6942 0001857  92.9247 267.2161 14.34218547414944
IRIDIUM 146             
1 43254U 18030F   26062.26489977  .00000361  00000+0  12194-3 0  9997
2 43254  86.4015 334.7147 0002079  88.9497 271.1937 14.34219185414957
IRIDIUM 148             
1 43255U 18030G   26062.23318685  .00000278  00000+0  92141-4 0  9990
2 43255  86.4016 334.7693 0002133  86.2270 273.9170 14.34219113414989
IRIDIUM 142             
1 43256U 18030H   26062.27124228  .00000091  00000+0  25361-4 0  9996
2 43256  86.4014 334.6465 0001878  92.0510 268.0901 14.34218199414958
IRIDIUM 150             
1 43257U 18030J   26062.30929718  .00000313  00000+0  10459-3 0  9996
2 43257  86.4018 334.7433 0002050  85.5401 274.6029 14.34218038414987
IRIDIUM 143             
1 43258U 18030K   26062.29027030  .00000131  00000+0  39886-4 0  9995
2 43258  86.4019 334.8396 0001987  88.7134 271.4290 14.34218453414913
IRIDIUM 161             
1 43478U 18047C   26062.23147440  .00000399  00000+0  11272-3 0  9993
2 43478  86.4512 132.7811 0002540  92.8755 267.2737 14.43282703409858
